TRANSPORTER-16 OBJECT BK
1 68473U 26067BK  26097.33335648  .00091047  00000+0  45462-2 0  9991
2 68473  97.4464  56.8557 0003027 348.9648 278.0336 15.17085369  2482
