{
  "norad_id": 68473,
  "name": "TRANSPORTER-16 OBJECT BK",
  "history": [
    {
      "epoch": "2026-04-07T08:00:01.999872Z",
      "apogee_km": 516.7415351874779,
      "perigee_km": 512.5680876015149,
      "latitude_deg": -82.00865725729604,
      "longitude_deg": -146.56953842743079,
      "height_km": 542.7014318484559,
      "semi_major_axis_km": 6892.791811394496,
      "eccentricity": 0.00030274,
      "inclination_deg": 97.4464,
      "raan_deg": 56.8557,
      "arg_perigee_deg": 348.9648,
      "mean_anomaly_deg": 278.0336,
      "mean_motion_rev_day": 15.17085369
    }
  ]
}